start=new Date('2022-09-23T00:00:00.000Z').valueOf();
sats=[{"MEAN_ANOMALY":"284.7330","CENTER_NAME":"EARTH","DECAY_DATE":null,"PERIOD":"95.593","TLE_LINE1":"1 46038U 20055M   22265.70238095 -.00000353  00000-0 -48351-5 0  9993","SITE":"AFETR","APOAPSIS":"548.185","REF_FRAME":"TEME","RA_OF_ASC_NODE":"40.8679","OBJECT_ID":"2020-055M","MEAN_MOTION_DOT":"-0.00000353","ECCENTRICITY":"0.00013580","NORAD_CAT_ID":"46038","FILE":"3580594","EPOCH":"2022-09-22T16:51:25.714080","GP_ID":"213257281","BSTAR":"-0.00000483510000","ARG_OF_PERICENTER":"75.3809","COUNTRY_CODE":"US","PERIAPSIS":"546.304","REV_AT_EPOCH":"11837","INCLINATION":"53.0535","ELEMENT_SET_NO":"999","OBJECT_TYPE":"PAYLOAD","TLE_LINE2":"2 46038  53.0535  40.8679 0001358  75.3809 284.7330 15.06389995118379","MEAN_MOTION_DDOT":"0.0000000000000","OBJECT_NAME":"STARLINK-1567","MEAN_MOTION":"15.06389995","TIME_SYSTEM":"UTC","CLASSIFICATION_TYPE":"U","RCS_SIZE":"LARGE","LAUNCH_DATE":"2020-08-07","MEAN_ELEMENT_THEORY":"SGP4","SEMIMAJOR_AXIS":"6925.379","EPHEMERIS_TYPE":"0"},{"MEAN_ELEMENT_THEORY":"SGP4","SEMIMAJOR_AXIS":"6925.211","EPHEMERIS_TYPE":"0","RCS_SIZE":"LARGE","CLASSIFICATION_TYPE":"U","LAUNCH_DATE":"2020-08-07","MEAN_MOTION":"15.06444800","TIME_SYSTEM":"UTC","TLE_LINE2":"2 46039  53.0544  41.1321 0001354  76.2534 283.8606 15.06444800118361","MEAN_MOTION_DDOT":"0.0000000000000","OBJECT_NAME":"STARLINK-1569","REV_AT_EPOCH":"11836","INCLINATION":"53.0544","ELEMENT_SET_NO":"999","OBJECT_TYPE":"PAYLOAD","ARG_OF_PERICENTER":"76.2534","COUNTRY_CODE":"US","PERIAPSIS":"546.139","BSTAR":"-0.00046215000000","EPOCH":"2022-09-22T15:26:28.159008","GP_ID":"213258022","ECCENTRICITY":"0.00013540","NORAD_CAT_ID":"46039","FILE":"3580594","RA_OF_ASC_NODE":"41.1321","MEAN_MOTION_DOT":"-0.00007167","OBJECT_ID":"2020-055N","APOAPSIS":"548.014","REF_FRAME":"TEME","TLE_LINE1":"1 46039U 20055N   22265.64338147 -.00007167  00000-0 -46215-3 0  9991","SITE":"AFETR","CENTER_NAME":"EARTH","MEAN_ANOMALY":"283.8606","DECAY_DATE":null,"PERIOD":"95.589"},{"EPHEMERIS_TYPE":"0","MEAN_ELEMENT_THEORY":"SGP4","SEMIMAJOR_AXIS":"6925.351","RCS_SIZE":"LARGE","CLASSIFICATION_TYPE":"U","LAUNCH_DATE":"2020-08-07","MEAN_MOTION":"15.06399104","TIME_SYSTEM":"UTC","ELEMENT_SET_NO":"999","OBJECT_TYPE":"PAYLOAD","INCLINATION":"53.0560","REV_AT_EPOCH":"11833","TLE_LINE2":"2 46040  53.0560  41.0000 0001025  74.1045 286.0057 15.06399104118331","OBJECT_NAME":"STARLINK-1576","MEAN_MOTION_DDOT":"0.0000000000000","BSTAR":"0.00001609200000","COUNTRY_CODE":"US","PERIAPSIS":"546.506","ARG_OF_PERICENTER":"74.1045","FILE":"3580594","ECCENTRICITY":"0.00010250","NORAD_CAT_ID":"46040","GP_ID":"213256772","EPOCH":"2022-09-22T16:08:57.378912","APOAPSIS":"547.926","REF_FRAME":"TEME","MEAN_MOTION_DOT":"-0.00000042","OBJECT_ID":"2020-055P","RA_OF_ASC_NODE":"41.0000","CENTER_NAME":"EARTH","MEAN_ANOMALY":"286.0057","DECAY_DATE":null,"PERIOD":"95.592","SITE":"AFETR","TLE_LINE1":"1 46040U 20055P   22265.67288633 -.00000042  00000-0  16092-4 0  9995"},{"COUNTRY_CODE":"US","PERIAPSIS":"546.252","ARG_OF_PERICENTER":"65.4955","BSTAR":"0.00013289000000","EPOCH":"2022-09-22T16:24:53.335296","GP_ID":"213257022","FILE":"3580594","ECCENTRICITY":"0.00014030","NORAD_CAT_ID":"46041","MEAN_MOTION_DOT":"0.00001698","OBJECT_ID":"2020-055Q","RA_OF_ASC_NODE":"41.0402","APOAPSIS":"548.196","REF_FRAME":"TEME","SITE":"AFETR","TLE_LINE1":"1 46041U 20055Q   22265.68395064  .00001698  00000-0  13289-3 0  9995","CENTER_NAME":"EARTH","MEAN_ANOMALY":"294.6181","PERIOD":"95.592","DECAY_DATE":null,"EPHEMERIS_TYPE":"0","MEAN_ELEMENT_THEORY":"SGP4","SEMIMAJOR_AXIS":"6925.359","CLASSIFICATION_TYPE":"U","RCS_SIZE":"LARGE","LAUNCH_DATE":"2020-08-07","MEAN_MOTION":"15.06396593","TIME_SYSTEM":"UTC","OBJECT_NAME":"STARLINK-1580","TLE_LINE2":"2 46041  53.0555  41.0402 0001403  65.4955 294.6181 15.06396593118348","MEAN_MOTION_DDOT":"0.0000000000000","ELEMENT_SET_NO":"999","OBJECT_TYPE":"PAYLOAD","INCLINATION":"53.0555","REV_AT_EPOCH":"11834"},{"BSTAR":"0.00023683000000","ARG_OF_PERICENTER":"86.7170","COUNTRY_CODE":"US","PERIAPSIS":"546.233","ECCENTRICITY":"0.00013980","NORAD_CAT_ID":"46042","FILE":"3580594","GP_ID":"213257772","EPOCH":"2022-09-22T20:34:20.135136","APOAPSIS":"548.170","REF_FRAME":"TEME","RA_OF_ASC_NODE":"40.1776","OBJECT_ID":"2020-055R","MEAN_MOTION_DOT":"0.00003248","MEAN_ANOMALY":"273.3979","CENTER_NAME":"EARTH","PERIOD":"95.592","DECAY_DATE":null,"TLE_LINE1":"1 46042U 20055R   22265.85717749  .00003248  00000-0  23683-3 0  9995","SITE":"AFETR","MEAN_ELEMENT_THEORY":"SGP4","SEMIMAJOR_AXIS":"6925.337","EPHEMERIS_TYPE":"0","CLASSIFICATION_TYPE":"U","RCS_SIZE":"LARGE","LAUNCH_DATE":"2020-08-07","MEAN_MOTION":"15.06403921","TIME_SYSTEM":"UTC","REV_AT_EPOCH":"11836","INCLINATION":"53.0564","ELEMENT_SET_NO":"999","OBJECT_TYPE":"PAYLOAD","MEAN_MOTION_DDOT":"0.0000000000000","TLE_LINE2":"2 46042  53.0564  40.1776 0001398  86.7170 273.3979 15.06403921118366","OBJECT_NAME":"STARLINK-1581"},{"DECAY_DATE":null,"PERIOD":"95.592","CENTER_NAME":"EARTH","MEAN_ANOMALY":"279.6308","TLE_LINE1":"1 46043U 20055S   22265.84981187  .00003047  00000-0  22340-3 0  9990","SITE":"AFETR","REF_FRAME":"TEME","APOAPSIS":"548.428","RA_OF_ASC_NODE":"40.2162","OBJECT_ID":"2020-055S","MEAN_MOTION_DOT":"0.00003047","NORAD_CAT_ID":"46043","ECCENTRICITY":"0.00017380","FILE":"3580594","EPOCH":"2022-09-22T20:23:43.745568","GP_ID":"213257531","BSTAR":"0.00022340000000","ARG_OF_PERICENTER":"80.4877","PERIAPSIS":"546.021","COUNTRY_CODE":"US","REV_AT_EPOCH":"11839","INCLINATION":"53.0534","OBJECT_TYPE":"PAYLOAD","ELEMENT_SET_NO":"999","TLE_LINE2":"2 46043  53.0534  40.2162 0001738  80.4877 279.6308 15.06396465118399","MEAN_MOTION_DDOT":"0.0000000000000","OBJECT_NAME":"STARLINK-1582","TIME_SYSTEM":"UTC","MEAN_MOTION":"15.06396465","LAUNCH_DATE":"2020-08-07","RCS_SIZE":"LARGE","CLASSIFICATION_TYPE":"U","SEMIMAJOR_AXIS":"6925.359","MEAN_ELEMENT_THEORY":"SGP4","EPHEMERIS_TYPE":"0"},{"GP_ID":"213225231","EPOCH":"2022-09-22T12:45:53.777088","FILE":"3580347","NORAD_CAT_ID":"46044","ECCENTRICITY":"0.00011850","PERIAPSIS":"546.403","COUNTRY_CODE":"US","ARG_OF_PERICENTER":"96.3813","BSTAR":"0.00011608000000","SITE":"AFETR","TLE_LINE1":"1 46044U 20055T   22265.53187242  .00001448  00000-0  11608-3 0  9995","DECAY_DATE":null,"PERIOD":"95.592","MEAN_ANOMALY":"263.7311","CENTER_NAME":"EARTH","MEAN_MOTION_DOT":"0.00001448","OBJECT_ID":"2020-055T","RA_OF_ASC_NODE":"41.6410","REF_FRAME":"TEME","APOAPSIS":"548.044","LAUNCH_DATE":"2020-08-07","RCS_SIZE":"LARGE","CLASSIFICATION_TYPE":"U","EPHEMERIS_TYPE":"0","SEMIMAJOR_AXIS":"6925.358","MEAN_ELEMENT_THEORY":"SGP4","TLE_LINE2":"2 46044  53.0573  41.6410 0001185  96.3813 263.7311 15.06396779118358","OBJECT_NAME":"STARLINK-1584","MEAN_MOTION_DDOT":"0.0000000000000","OBJECT_TYPE":"PAYLOAD","ELEMENT_SET_NO":"999","INCLINATION":"53.0573","REV_AT_EPOCH":"11835","TIME_SYSTEM":"UTC","MEAN_MOTION":"15.06396779"},{"REF_FRAME":"TEME","APOAPSIS":"548.177","RA_OF_ASC_NODE":"41.5899","MEAN_MOTION_DOT":"0.00003613","OBJECT_ID":"2020-055U","DECAY_DATE":null,"PERIOD":"95.592","CENTER_NAME":"EARTH","MEAN_ANOMALY":"275.9730","TLE_LINE1":"1 46045U 20055U   22265.54388111  .00003613  00000-0  26134-3 0  9991","SITE":"AFETR","BSTAR":"0.00026134000000","ARG_OF_PERICENTER":"84.1416","PERIAPSIS":"546.266","COUNTRY_CODE":"US","NORAD_CAT_ID":"46045","ECCENTRICITY":"0.00013800","FILE":"3580347","GP_ID":"213226480","EPOCH":"2022-09-22T13:03:11.327904","TIME_SYSTEM":"UTC","MEAN_MOTION":"15.06397504","REV_AT_EPOCH":"11833","INCLINATION":"53.0552","OBJECT_TYPE":"PAYLOAD","ELEMENT_SET_NO":"999","TLE_LINE2":"2 46045  53.0552  41.5899 0001380  84.1416 275.9730 15.06397504118332","OBJECT_NAME":"STARLINK-1591","MEAN_MOTION_DDOT":"0.0000000000000","SEMIMAJOR_AXIS":"6925.356","MEAN_ELEMENT_THEORY":"SGP4","EPHEMERIS_TYPE":"0","LAUNCH_DATE":"2020-08-07","CLASSIFICATION_TYPE":"U","RCS_SIZE":"LARGE"},{"LAUNCH_DATE":"2020-08-07","CLASSIFICATION_TYPE":"U","RCS_SIZE":"LARGE","EPHEMERIS_TYPE":"0","SEMIMAJOR_AXIS":"6925.354","MEAN_ELEMENT_THEORY":"SGP4","TLE_LINE2":"2 46047  53.0555  31.1928 0001267  84.6870 275.4263 15.06398110118507","OBJECT_NAME":"STARLINK-1524","MEAN_MOTION_DDOT":"0.0000000000000","OBJECT_TYPE":"PAYLOAD","ELEMENT_SET_NO":"999","REV_AT_EPOCH":"11850","INCLINATION":"53.0555","TIME_SYSTEM":"UTC","MEAN_MOTION":"15.06398110","GP_ID":"213257282","EPOCH":"2022-09-22T15:06:34.999200","FILE":"3580594","NORAD_CAT_ID":"46047","ECCENTRICITY":"0.00012670","PERIAPSIS":"546.342","COUNTRY_CODE":"US","ARG_OF_PERICENTER":"84.6870","BSTAR":"0.00000496290000","SITE":"AFETR","TLE_LINE1":"1 46047U 20055W   22265.62957175 -.00000207  00000-0  49629-5 0  9997","PERIOD":"95.592","DECAY_DATE":null,"CENTER_NAME":"EARTH","MEAN_ANOMALY":"275.4263","MEAN_MOTION_DOT":"-0.00000207","OBJECT_ID":"2020-055W","RA_OF_ASC_NODE":"31.1928","REF_FRAME":"TEME","APOAPSIS":"548.097"},{"EPHEMERIS_TYPE":"0","MEAN_ELEMENT_THEORY":"SGP4","SEMIMAJOR_AXIS":"6925.353","RCS_SIZE":"LARGE","CLASSIFICATION_TYPE":"U","LAUNCH_DATE":"2020-08-07","MEAN_MOTION":"15.06398662","TIME_SYSTEM":"UTC","ELEMENT_SET_NO":"999","OBJECT_TYPE":"PAYLOAD","INCLINATION":"53.0563","REV_AT_EPOCH":"11847","TLE_LINE2":"2 46048  53.0563  31.5277 0001516  86.3794 273.7369 15.06398662118475","OBJECT_NAME":"STARLINK-1527","MEAN_MOTION_DDOT":"0.0000000000000","BSTAR":"0.00005154100000","COUNTRY_CODE":"US","PERIAPSIS":"546.168","ARG_OF_PERICENTER":"86.3794","FILE":"3580347","ECCENTRICITY":"0.00015160","NORAD_CAT_ID":"46048","EPOCH":"2022-09-22T13:25:44.388192","GP_ID":"213224981","APOAPSIS":"548.268","REF_FRAME":"TEME","OBJECT_ID":"2020-055X","MEAN_MOTION_DOT":"0.00000486","RA_OF_ASC_NODE":"31.5277","CENTER_NAME":"EARTH","MEAN_ANOMALY":"273.7369","DECAY_DATE":null,"PERIOD":"95.592","SITE":"AFETR","TLE_LINE1":"1 46048U 20055X   22265.55954153  .00000486  00000-0  51541-4 0  9996"}];
